0 ARIANE 1 DEB
1 17815U 86019ME  20246.38483469 +.00000118 +00000-0 +52361-4 0  9996
2 17815 098.2599 290.5634 0028758 026.5771 099.3013 14.38234306758271
0 COSMOS 1375 DEB
1 17807U 82055AZ  20246.66734615 +.00000058 +00000-0 +13499-3 0  9997
2 17807 065.8333 332.1778 0066114 284.9471 193.0636 13.78912975747780
0 COSMOS 1375 DEB
1 17806U 82055AY  20246.57735281 -.00000012  00000-0  66274-4 0  9997
2 17806  65.8348 306.9463 0050768 141.6265 330.5648 13.80486188754967
0 COSMOS 1375 DEB
1 17805U 82055AX  20245.43277354 +.00000277 +00000-0 +25927-3 0  9993
2 17805 065.8237 348.8111 0025362 244.5490 183.7336 13.97012796762726
0 COSMOS 1375 DEB
1 17804U 82055AW  20246.83963844  .00000286  00000-0  26902-3 0  9997
2 17804  65.8201  36.7141 0024764 221.8690 255.0450 13.96276832762000
0 COSMOS 1375 DEB
1 17803U 82055AV  20245.90540295 +.00000080 +00000-0 +15517-3 0  9996
2 17803 065.8315 097.5104 0046800 205.8435 258.4127 13.79598166752110
0 COSMOS 1375 DEB
1 17802U 82055AU  20245.20226729  .00000002  00000-0  84597-4 0  9990
2 17802  65.8351 323.5692 0049526 268.2503 122.6190 13.75879344747279
0 COSMOS 1375 DEB
1 17801U 82055AT  20245.20853002  .00000460  00000-0  25885-3 0  9991
2 17801  65.8315 211.8863 0041826 266.6260  93.0040 14.19439851784285
0 COSMOS 1375 DEB
1 17800U 82055AS  20245.92060132 -.00000000 +00000-0 +89675-4 0  9992
2 17800 065.8353 152.7323 0028453 014.8513 061.5752 13.70320510742950
0 COSMOS 1375 DEB
1 17799U 82055AR  20246.05876083 -.00000037  00000-0  36471-4 0  9990
2 17799  65.8395 310.9231 0019128  10.4067  64.9875 13.92768713765148
0 COSMOS 1375 DEB
1 17798U 82055AQ  20245.49198986 -.00000092 +00000-0 -19713-4 0  9997
2 17798 065.8368 352.4965 0066828 122.1017 316.1542 13.59112590729712
0 COSMOS 1375 DEB
1 17797U 82055AP  20245.76386448 +.00000176 +00000-0 +21971-3 0  9997
2 17797 065.8263 243.1301 0018885 231.9305 301.3272 13.87412281758195
0 COSMOS 1375 DEB
1 17796U 82055AN  20245.86087498  .00000230  00000-0  19790-3 0  9997
2 17796  65.8225 159.3322 0051019 289.7622 130.4507 14.04118650434514
0 COSMOS 1375 DEB
1 17795U 82055AM  20246.51355278 -.00000037 +00000-0 +53703-4 0  9992
2 17795 065.8348 308.6980 0062159 118.0730 337.0740 13.59740862730832
0 COSMOS 1375 DEB
1 17794U 82055AL  20246.20650854  .00000458  00000-0  41196-3 0  9993
2 17794  65.8202 282.2651 0057741 292.5035  66.9930 13.92924621757347
0 COSMOS 1275 DEB
1 17793U 81053LP  20246.37387913  .00000172  00000-0  28226-3 0  9992
2 17793  83.1464 103.9519 0276818 251.6763 230.1980 13.29146325716121
0 COSMOS 1275 DEB
1 17792U 81053LN  20246.60925181 +.00000404 +00000-0 +24517-3 0  9999
2 17792 082.9525 101.9920 0013586 286.3459 126.5312 14.04055853799371
0 DELTA 1 DEB
1 17768U 78026HA  20245.41880075 +.00000102 +00000-0 +46131-4 0  9990
2 17768 098.4864 224.3998 0080318 306.6832 206.4886 14.39059655017778
0 DELTA 1 DEB
1 17765U 78026GX  20245.21133120  .00000114  00000-0  11129-3 0  9998
2 17765  99.0546 339.2135 0042187 356.3751  33.0025 13.97713264804715
0 DELTA 1 DEB
1 17764U 78026GW  20246.76137910 +.00000042 +00000-0 +48186-4 0  9993
2 17764 099.0272 231.0165 0048083 039.5511 084.8040 14.10964458821985
0 SL-3 DEB
1 17755U 82116D   20245.48044278  .00000119  00000-0  55021-4 0  9991
2 17755  81.2541 296.7001 0067952 262.9886 160.8390 14.14277714945972
0 SL-8 DEB
1 17754U 85079C   20245.54981656 +.00000167 +00000-0 +55354-4 0  9990
2 17754 074.0396 062.7426 0017023 299.6881 115.7810 14.45186156833972
0 COSMOS 970 DEB *
1 17732U 77121BP  20246.59222505  .00000366  00000-0  31098-3 0  9991
2 17732  65.8095 290.1447 0186726 204.4590 154.7537 13.91019776795430
0 THORAD DELTA 1 DEB
1 17728U 74089EX  20245.49767045 -.00000045  00000-0 -22700-4 0  9994
2 17728 101.5464 144.1894 0108557 271.6782 263.5033 12.34768901601604
0 COSMOS 374 DEB *
1 17725U 70089DC  20246.15317312  .00000048  00000-0  56979-4 0  9995
2 17725  62.7424  99.4103 0805821 177.4264 283.3403 13.29220761693026
0 OPS 4682 DEB
1 17722U 65027W   20245.46169279 -.00000009  00000-0 -56629-4 0  9999
2 17722  90.2977 303.5281 0013543 123.6985 300.0894 12.97700510670545
0 THORAD AGENA D DEB
1 17720U 70025PJ  20246.15616531  .00000701  00000-0  46025-3 0  9991
2 17720  99.6222 316.7113 0035693 277.7851 136.1246 14.05395402807735
0 THORAD AGENA D DEB
1 17719U 70025PH  20245.82335972 +.00001256 +00000-0 +47157-3 0  9992
2 17719 099.0693 095.3020 0097974 082.3948 340.7587 14.30834377815639
0 THORAD AGENA D DEB
1 17717U 70025PF  20245.42918532 +.00000409 +00000-0 +87000-4 0  9996
2 17717 099.9714 143.5128 0088637 274.1840 084.9231 14.64151370852044
0 THORAD AGENA D DEB
1 17716U 70025PE  20245.09794168  .00001201  00000-0  43088-3 0  9993
2 17716  99.5062 181.3367 0030912  87.9849 272.4873 14.35765914813318
0 THOR ABLESTAR DEB
1 17713U 61015LR  20245.40826366 +.00000029 +00000-0 +78873-4 0  9998
2 17713 066.2100 244.9871 0074215 313.2989 197.5496 13.96584626804839
0 ARIANE 1 DEB
1 17702U 86019LU  20246.67486758 +.00000142 +00000-0 +49066-4 0  9992
2 17702 098.2936 300.9072 0007384 113.8620 246.3348 14.48704856772474
0 OPS 4682 DEB
1 17666U 65027V   20246.48274420 -.00000845 +00000-0 -29849-2 0  9994
2 17666 090.2911 321.7809 0040441 240.0684 131.1868 12.96082373675879
0 THORAD AGENA D DEB
1 17658U 69082KU  20246.25175999 +.00000073 +00000-0 +88990-4 0  9991
2 17658 070.3556 235.5728 0061414 301.0090 070.8874 13.95659970275974
0 THOR ABLESTAR DEB
1 17648U 61015LH  20245.39346201  .00000046  00000-0  72575-4 0  9990
2 17648  65.7260   0.4109 0071541 147.2804 213.2739 14.11699531458736
0 COSMOS 1275 DEB
1 17642U 81053LM  20246.50521736  .00000497  00000-0  20237-3 0  9997
2 17642  82.8691  49.8052 0040398  97.7589 262.8185 14.25264659834600
0 COSMOS 1275 DEB
1 17641U 81053LL  20245.09708985  .00000728  00000-0  41072-3 0  9999
2 17641  82.7558 184.5454 0052462 187.8951 182.9613 14.08378422813040
0 COSMOS 1275 DEB
1 17640U 81053LK  20246.44455901 +.00000709 +00000-0 +33251-3 0  9994
2 17640 082.9123 249.1677 0031643 094.3598 266.1199 14.18613705510282
0 COSMOS 1275 DEB
1 17639U 81053LJ  20245.58591525 +.00000456 +00000-0 +56505-3 0  9995
2 17639 083.0025 191.5930 0158731 169.3787 318.0796 13.57676730743812
0 COSMOS 1275 DEB
1 17638U 81053LH  20245.36413346 +.00000555 +00000-0 +60570-3 0  9991
2 17638 082.9940 031.5451 0124198 327.6483 058.4209 13.67797970755355
0 COSMOS 1275 DEB
1 17637U 81053LG  20245.75140815  .00000352  00000-0  42133-3 0  9991
2 17637  83.0700 232.4667 0135462 280.1198 257.8015 13.60942784748612
0 COSMOS 1275 DEB
1 17635U 81053LE  20245.12512914 +.00000547 +00000-0 +30546-3 0  9994
2 17635 082.8245 281.0630 0049642 079.5669 281.1095 14.08569846799305
0 COSMOS 1275 DEB
1 17633U 81053LC  20245.47066993  .00000845  00000-0  79790-3 0  9996
2 17633  83.0713 244.5414 0182966 228.8491 257.6276 13.73083212750089
0 COSMOS 1275 DEB
1 17632U 81053LB  20245.35090079  .00000420  00000-0  51867-3 0  9998
2 17632  83.0839 264.5056 0145339 247.6186 123.7175 13.58869605748184
0 COSMOS 1275 DEB
1 17631U 81053LA  20245.24023453 +.00000000 +00000-0 -19019-4 0  9996
2 17631 082.9319 330.5684 0129684 126.8826 293.4841 13.63370617753243
0 COSMOS 1275 DEB
1 17629U 81053KY  20245.03456685  .00000342  00000-0  38307-3 0  9995
2 17629  82.9870 101.3471 0163849 242.8142 275.2586 13.63066143750349
0 COSMOS 1275 DEB
1 17627U 81053KW  20246.30614504 +.00000354 +00000-0 +25126-3 0  9998
2 17627 082.9297 183.6474 0051971 059.7534 300.8763 13.94324932790543
0 COSMOS 1275 DEB
1 17626U 81053KV  20246.78124137  .00000173  00000-0  19753-3 0  9995
2 17626  82.8667 262.3340 0143449 261.8140 224.5382 13.60828565751900
0 COSMOS 1275 DEB
1 17625U 81053KU  20246.65638258 +.00000262 +00000-0 +18218-3 0  9998
2 17625 082.7939 353.4041 0045062 236.8059 122.8783 13.94836391473317
0 COSMOS 1275 DEB
1 17624U 81053KT  20246.41745008  .00000453  00000-0  17925-3 0  9999
2 17624  82.8516  26.9357 0016542 187.4277 226.1600 14.26882191821312
0 COSMOS 1275 DEB
1 17623U 81053KS  20246.55375012 +.00000388 +00000-0 +29134-3 0  9999
2 17623 082.8030 075.6654 0059819 102.8711 311.7894 13.91108806785209
0 COSMOS 1275 DEB
1 17621U 81053KQ  20245.48327015  .00001229  00000-0  57701-3 0  9994
2 17621  82.7947 161.3499 0038680 210.2455 149.6493 14.19003169806265
0 COSMOS 1275 DEB
1 17620U 81053KP  20245.22405085 +.00000507 +00000-0 +22855-3 0  9999
2 17620 083.1807 319.2490 0025912 244.8339 115.0156 14.20265777811904
0 COSMOS 1275 DEB
1 17619U 81053KN  20246.56014153 +.00000467 +00000-0 +21316-3 0  9993
2 17619 082.9461 281.8648 0023725 067.6160 056.9437 14.19513387814355
0 COSMOS 1275 DEB
1 17618U 81053KM  20246.37306552 +.00000559 +00000-0 +35623-3 0  9996
2 17618 082.8506 010.3741 0053501 260.9725 152.1500 14.01371220797070
0 COSMOS 1275 DEB
1 17617U 81053KL  20245.42868987 +.00000204 +00000-0 +21448-3 0  9992
2 17617 082.8582 240.2203 0185051 184.3119 329.8816 13.63175140753853
0 COSMOS 1275 DEB
1 17616U 81053KK  20245.29475916  .00000340  00000-0  37644-3 0  9998
2 17616  83.0384  82.2216 0120483 230.0069 305.5868 13.66058022753494
0 COSMOS 1275 DEB
1 17615U 81053KJ  20245.78135851 +.00000507 +00000-0 +29985-3 0  9996
2 17615 082.8650 348.5275 0046746 129.8124 358.2481 14.05387384795273
0 COSMOS 1275 DEB
1 17614U 81053KH  20245.42021190  .00000569  00000-0  37117-3 0  9990
2 17614  82.7893 308.0824 0051454  91.1957 281.5260 14.00055433791673
0 SL-16 R/B
1 17590U 87027B   20245.94029551 -.00000247 +00000-0 -99193-4 0  9994
2 17590 071.0022 200.3289 0006961 301.2952 058.7489 14.16786537729999
0 COSMOS 1833
1 17589U 87027A   20245.11978229 -.00000045  00000-0  15533-5 0  9998
2 17589  70.9103 242.0440 0017616 338.5951  21.4431 14.12868110725835
0 SL-14 R/B
1 17588U 87026G   20246.47505961 +.00000009 +00000-0 -98837-5 0  9993
2 17588 082.5652 239.2308 0037359 207.7636 264.7598 12.55694871534285
0 COSMOS 1832
1 17587U 87026F   20246.74918911 +.00000045 +00000-0 +18588-3 0  9997
2 17587 082.5663 117.0367 0008125 312.9761 111.3625 12.64267646544635
